algorithm,apogee,argOfPerigee,bStar,classificationMarking,elset_created_at,elset_created_by,dataMode,eccentricity,idElset,idOnOrbit,inclination,line1,line2,meanAnomaly,meanMotion,meanMotionDDot,meanMotionDot,origNetwork,perigee,period,raan,revNo,satNo,semiMajorAxis,source,__START_AT,__END_AT,COUNTRY,LAUNCH,LAUNCH_NUM,LAUNCH_PIECE,NORAD_CAT_ID,OBJECT_ID,OBJECT_NAME,OBJECT_NUMBER,OBJECT_TYPE,RCS_SIZE,SATNAME,SITE,satcat_current_fetch_date
SGP4,6938.021,309.7779,1.7767E-5,U,2024-01-31T23:05:17.934Z,system.ob-ingest,REAL,1.195E-4,fd62ecc6-563a-4322-ad20-d6b6fb0f338d,57905,43.001,1 57905U 23146Q   24031.74346624 +.00000036 +00000+0 +17767-4 0 99997,2 57905  43.0010 165.5872 0001195 309.7779  50.2958 15.02543971021490,50.2958,15.02543971,0.0,3.6E-7,OPS1,6936.363,95.837,165.5872,2149,57905,6937.192,18th SPCS,2024-01-31T17:50:35.483136Z,2024-02-01T09:47:52.590048Z,US,2023-09-20,146,Q,57905,2023-146Q,STARLINK-30451,57905,PAYLOAD,LARGE,STARLINK-30451,AFETR,2024-08-21
SGP4,6889.179,106.5832,8.9652E-5,U,2024-02-01T05:05:15.560Z,system.ob-ingest,REAL,2.033E-4,9ec46f67-332d-47f9-ac1a-9f8270ddf099,58115,53.0535,1 58115U 23161U   24031.66040233 +.00001567 +00000+0 +89652-4 0 99998,2 58115  53.0535 126.5013 0002033 106.5832 253.5386 15.18741993016933,253.5386,15.18741993,0.0,1.567E-5,OPS1,6886.378,94.815,126.5013,1693,58115,6887.779,18th SPCS,2024-01-31T15:50:58.761312Z,2024-02-01T10:48:11.015136Z,US,2023-10-21,161,U,58115,2023-161U,STARLINK-30580,58115,PAYLOAD,LARGE,STARLINK-30580,AFWTR,2024-08-21
SGP4,6937.926,246.9574,0.0016427,U,2024-01-31T23:05:17.722Z,system.ob-ingest,REAL,1.128E-4,b7b9b568-0e31-4b42-9656-3906d6d5c152,58210,43.0009,1 58210U 23170E   24031.51191910 +.00022070 +00000+0 +16427-2 0 99997,2 58210  43.0009  50.1491 0001128 246.9574 113.1150 15.02559660014728,113.115,15.0255966,0.0,2.207E-4,OPS1,6936.361,95.836,50.1491,1472,58210,6937.144,18th SPCS,2024-01-31T12:17:09.810240Z,2024-02-01T01:02:59.471232Z,US,2023-11-03,170,E,58210,2023-170E,STARLINK-30846,58210,PAYLOAD,LARGE,STARLINK-30846,AFETR,2024-08-21
SGP4,6937.702,272.6174,8.1319E-4,U,2024-01-31T23:05:17.765Z,system.ob-ingest,REAL,7.72E-5,fbc85c1f-bc0d-4295-955b-2f95f459915f,58228,43.0005,1 58228U 23170Y   24031.39894450 +.00010803 +00000+0 +81319-3 0 99995,2 58228  43.0005  51.0045 0000772 272.6174  87.4580 15.02552195014708,87.458,15.02552195,0.0,1.0803E-4,OPS1,6936.631,95.837,51.0045,1470,58228,6937.167,18th SPCS,2024-01-31T09:34:28.804800Z,2024-02-01T03:07:29.550432Z,US,2023-11-03,170,Y,58228,2023-170Y,STARLINK-30871,58228,PAYLOAD,LARGE,STARLINK-30871,AFETR,2024-08-21
SGP4,6889.092,97.8553,-5.0645E-5,U,2024-01-31T07:05:14.648Z,system.ob-ingest,REAL,1.785E-4,a1a647b3-f625-4877-b013-a88d9173326b,58388,53.0541,1 58388U 23178Q   24031.09371782 -.00001382 +00000+0 -50645-4 0 99998,2 58388  53.0541 329.1748 0001785  97.8553 262.2644 15.18714207012256,262.2644,15.18714207,0.0,-1.382E-5,OPS1,6886.633,94.817,329.1748,1225,58388,6887.863,18th SPCS,2024-01-31T02:14:57.219648Z,2024-02-01T01:56:24.648576Z,US,2023-11-20,178,Q,58388,2023-178Q,STARLINK-30913,58388,PAYLOAD,LARGE,STARLINK-30913,AFWTR,2024-08-21
SGP4,6938.024,262.3903,3.8368E-4,U,2024-01-31T23:05:17.913Z,system.ob-ingest,REAL,1.144E-4,3493215c-0adb-4b73-ab7c-96243ab0d435,58441,42.9989,1 58441U 23183E   24031.65516652 +.00004982 +00000+0 +38368-3 0 99997,2 58441  42.9989 256.4711 0001144 262.3903  97.6809 15.02531518011200,97.6809,15.02531518,0.0,4.982E-5,OPS1,6936.437,95.838,256.4711,1120,58441,6937.23,18th SPCS,2024-01-31T15:43:26.387328Z,2024-02-01T01:17:48.551424Z,US,2023-11-28,183,E,58441,2023-183E,STARLINK-30942,58441,PAYLOAD,LARGE,STARLINK-30942,AFETR,2024-08-21
SGP4,6861.073,99.9495,-2.2703E-4,U,2024-01-31T15:05:15.094Z,system.ob-ingest,REAL,1.637E-4,bd8b73c0-d61a-4dfb-864a-b5bc6cdb3c06,58532,53.1587,1 58532U 23192B   24031.27768127 -.00006628 +00000+0 -22703-3 0 99999,2 58532  53.1587  28.6958 0001637  99.9495 260.1690 15.27992760009577,260.169,15.2799276,0.0,-6.628E-5,OPS1,6858.827,94.241,28.6958,957,58532,6859.95,18th SPCS,2024-01-31T06:39:51.661728Z,2024-02-01T03:04:18.099264Z,US,2023-12-08,192,B,58532,2023-192B,STARLINK-31035,58532,PAYLOAD,LARGE,STARLINK-31035,AFWTR,2024-08-21
SGP4,6866.977,234.9876,3.8134E-4,U,2024-01-31T15:05:15.097Z,system.ob-ingest,REAL,1.249E-4,5672f851-ba6c-4b83-a8bb-7b946270535d,58600,43.001,1 58600U 23200M   24031.40307571 +.00009738 +00000+0 +38134-3 0 99990,2 58600  43.0010  31.7590 0001249 234.9876 125.0858 15.25933936007966,125.0858,15.25933936,0.0,9.738E-5,OPS1,6865.262,94.368,31.759,796,58600,6866.119,18th SPCS,2024-01-31T09:40:25.741344Z,2024-02-01T02:57:17.884224Z,US,2023-12-19,200,M,58600,2023-200M,STARLINK-31052,58600,PAYLOAD,LARGE,STARLINK-31052,AFETR,2024-08-21
SGP4,6818.696,232.8989,5.1422E-4,U,2024-01-31T23:05:18.015Z,system.ob-ingest,REAL,1.672E-4,80ef7079-08ef-43d2-a9e5-4f23fd8a4c96,58640,42.9993,1 58640U 23203Y   24031.91667824 +.00022391 +00000+0 +51422-3 0 99998,2 58640  42.9993  74.6166 0001672 232.8989 299.9962 15.42267458007476,299.9962,15.42267458,0.0,2.2391E-4,OPS1,6816.416,93.369,74.6166,747,58640,6817.556,18th SPCS,2024-01-31T22:00:00.999936Z,2024-02-01T08:00:01.000224Z,US,2023-12-23,203,Y,58640,2023-203Y,STARLINK-31090,58640,PAYLOAD,LARGE,STARLINK-31090,AFETR,2024-08-21
SGP4,6866.968,257.7987,1.6704E-4,U,2024-01-31T23:05:18.098Z,system.ob-ingest,REAL,1.236E-4,8d6c010e-1261-4740-810d-9be70f6c6ae4,58669,43.0028,1 58669U 23211C   24031.57122656 +.00004117 +00000+0 +16704-3 0 99999,2 58669  43.0028  96.0897 0001236 257.7987 102.2725 15.25933995005071,102.2725,15.25933995,0.0,4.117E-5,OPS1,6865.271,94.368,96.0897,507,58669,6866.119,18th SPCS,2024-01-31T13:42:33.974784Z,2024-02-01T10:07:58.272672Z,US,2023-12-29,211,C,58669,2023-211C,STARLINK-31128,58669,PAYLOAD,LARGE,STARLINK-31128,AFETR,2024-08-21
SGP4,6867.151,270.6794,2.9802E-6,U,2024-01-31T23:05:18.138Z,system.ob-ingest,REAL,1.391E-4,3a151974-1ab7-4477-8d9d-dcfc36d10159,58681,43.0022,1 58681U 23211Q   24031.57576540 -.00000180 +00000+0 +29802-5 0 99990,2 58681  43.0022  96.1270 0001391 270.6794  89.3897 15.25908346005074,89.3897,15.25908346,0.0,-1.8E-6,OPS1,6865.241,94.37,96.127,507,58681,6866.196,18th SPCS,2024-01-31T13:49:06.130560Z,2024-02-01T10:14:28.546656Z,US,2023-12-29,211,Q,58681,2023-211Q,STARLINK-31147,58681,PAYLOAD,LARGE,STARLINK-31147,AFETR,2024-08-21
SGP4,6763.615,72.5783,-0.02282,U,2024-02-01T05:05:15.721Z,system.ob-ingest,REAL,8.84E-5,1d524331-a7b3-4411-8984-ac324e85acad,58784,53.1599,1 58784U 24011V   24031.91667824 -.01742530 +00000+0 -22820-1 0 99990,2 58784  53.1599 250.1443 0000884  72.5783 310.1903 15.60961081003903,310.1903,15.60961081,0.0,-0.0174253,OPS1,6762.419,92.251,250.1443,390,58784,6763.017,18th SPCS,2024-01-31T22:00:00.999936Z,2024-02-01T14:00:01.000224Z,US,2024-01-14,11,V,58784,2024-011V,STARLINK-31039,58784,PAYLOAD,LARGE,STARLINK-31039,AFWTR,2024-08-21
SGP4,6864.007,107.6056,4.2577E-4,U,2024-02-01T05:05:14.178Z,system.ob-ingest,REAL,6.599E-4,dd40deee-d2b6-4b1c-ae9a-b5b94a0b0dde,44764,53.0835,1 44764U 19074BD  24031.91243610 +.00011511 +00000+0 +42577-3 0 99997,2 44764  53.0835   6.7284 0006599 107.6056 252.5664 15.28149826233422,252.5664,15.28149826,0.0,1.1511E-4,OPS1,6854.954,94.232,6.7284,23342,44764,6859.48,18th SPCS,2024-01-31T21:53:54.479040Z,2024-02-01T04:10:37.315200Z,US,2019-11-11,74,BD,44764,2019-074BD,STARLINK-1059,44764,PAYLOAD,LARGE,STARLINK-1059,AFETR,2024-08-21
SGP4,6926.301,80.7422,-3.3056E-6,U,2024-02-01T05:05:14.294Z,system.ob-ingest,REAL,1.34E-4,158dc088-9b23-49c8-8fcd-a8ed2aefb56e,44973,53.0536,1 44973U 20001BM  24031.78004070 -.00000331 +00000+0 -33056-5 0 99995,2 44973  53.0536 153.9010 0001340  80.7422 279.3719 15.06392051224661,279.3719,15.06392051,0.0,-3.31E-6,OPS1,6924.445,95.593,153.901,22466,44973,6925.373,18th SPCS,2024-01-31T18:43:15.516480Z,2024-02-01T12:14:11.514336Z,US,2020-01-07,1,BM,44973,2020-001BM,STARLINK-1115,44973,PAYLOAD,LARGE,STARLINK-1115,AFETR,2024-08-21
SGP4,6926.345,98.1363,-1.07E-4,U,2024-01-31T15:05:13.506Z,system.ob-ingest,REAL,1.448E-4,64ed16d9-a665-4925-abb6-01514d93d780,45064,53.0539,1 45064U 20006W   24031.46673677 -.00001875 +00000+0 -10700-3 0 99995,2 45064  53.0539 115.3070 0001448  98.1363 261.9791 15.06401976221302,261.9791,15.06401976,0.0,-1.875E-5,OPS1,6924.34,95.592,115.307,22130,45064,6925.343,18th SPCS,2024-01-31T11:12:06.056928Z,2024-02-01T11:05:11.451840Z,US,2020-01-29,6,W,45064,2020-006W,STARLINK-1133,45064,PAYLOAD,LARGE,STARLINK-1133,AFETR,2024-08-21
SGP4,6926.512,114.4204,3.6156E-5,U,2024-02-01T05:05:13.778Z,system.ob-ingest,REAL,1.634E-4,f7713531-a7d9-4102-a23e-ebb97b2518b7,45078,53.054,1 45078U 20006AL  24031.63261646 +.00000257 +00000+0 +36156-4 0 99993,2 45078  53.0540 114.5567 0001634 114.4204 245.6956 15.06389463220963,245.6956,15.06389463,0.0,2.57E-6,OPS1,6924.249,95.593,114.5567,22096,45078,6925.381,18th SPCS,2024-01-31T15:10:58.062144Z,2024-02-01T10:17:26.072736Z,US,2020-01-29,6,AL,45078,2020-006AL,STARLINK-1177,45078,PAYLOAD,LARGE,STARLINK-1177,AFETR,2024-08-21
SGP4,6926.342,79.4497,-1.664E-4,U,2024-01-31T23:05:14.820Z,system.ob-ingest,REAL,1.428E-4,b7de94ce-7723-4ec3-89b8-2db4af3b8881,45085,53.0544,1 45085U 20006AT  24031.59390405 -.00002759 +00000+0 -16640-3 0 99998,2 45085  53.0544  94.7351 0001428  79.4497 280.6652 15.06398577221251,280.6652,15.06398577,0.0,-2.759E-5,OPS1,6924.364,95.592,94.7351,22125,45085,6925.353,18th SPCS,2024-01-31T14:15:13.309920Z,2024-02-01T09:21:41.590944Z,US,2020-01-29,6,AT,45085,2020-006AT,STARLINK-1179,45085,PAYLOAD,LARGE,STARLINK-1179,AFETR,2024-08-21
